STARLINK-34337          
1 64223U 25117W   26068.29880920  .00032131  00000+0  10925-2 0  9991
2 64223  53.1613  41.5755 0001199  96.3533 263.7604 15.30194023 44468
2025-313BE              
1 67482U 25313BE  26068.69721505  .00077178  00000+0  26504-2 0  9996
2 67482  97.3989 145.3568 0007208 335.3714  24.7181 15.29801687  7972
